CCSDS_OMM_VERS = 2.0
CREATION_DATE  = 
ORIGINATOR     = 

OBJECT_NAME    = 2026-027C
OBJECT_ID      = 2026-027C
CENTER_NAME    = EARTH
REF_FRAME      = TEME
TIME_SYSTEM    = UTC
MEAN_ELEMENT_THEORY = SGP/SGP4

EPOCH          = 2026-02-27T16:17:47.874912
MEAN_MOTION    = 15.17655860
ECCENTRICITY   = .0009984
INCLINATION    = 97.4892
RA_OF_ASC_NODE = 187.8067
ARG_OF_PERICENTER = 235.9191
MEAN_ANOMALY   = 124.1095

EPHEMERIS_TYPE = 0
CLASSIFICATION_TYPE = U
NORAD_CAT_ID   = 67748
ELEMENT_SET_NO = 999
REV_AT_EPOCH   = 234
BSTAR          = .29894E-3
MEAN_MOTION_DOT = .5958E-4
MEAN_MOTION_DDOT = 0

CCSDS_OMM_VERS = 2.0
CREATION_DATE  = 
ORIGINATOR     = 

OBJECT_NAME    = 2026-027D
OBJECT_ID      = 2026-027D
CENTER_NAME    = EARTH
REF_FRAME      = TEME
TIME_SYSTEM    = UTC
MEAN_ELEMENT_THEORY = SGP/SGP4

EPOCH          = 2026-02-27T16:15:04.400064
MEAN_MOTION    = 15.17906606
ECCENTRICITY   = .000972
INCLINATION    = 97.4886
RA_OF_ASC_NODE = 187.8082
ARG_OF_PERICENTER = 240.7540
MEAN_ANOMALY   = 119.2722

EPHEMERIS_TYPE = 0
CLASSIFICATION_TYPE = U
NORAD_CAT_ID   = 67749
ELEMENT_SET_NO = 999
REV_AT_EPOCH   = 229
BSTAR          = .48993E-3
MEAN_MOTION_DOT = .9884E-4
MEAN_MOTION_DDOT = 0

CCSDS_OMM_VERS = 2.0
CREATION_DATE  = 
ORIGINATOR     = 

OBJECT_NAME    = 2026-027E
OBJECT_ID      = 2026-027E
CENTER_NAME    = EARTH
REF_FRAME      = TEME
TIME_SYSTEM    = UTC
MEAN_ELEMENT_THEORY = SGP/SGP4

EPOCH          = 2026-02-27T16:15:02.244384
MEAN_MOTION    = 15.17888583
ECCENTRICITY   = .0008883
INCLINATION    = 97.4896
RA_OF_ASC_NODE = 187.8105
ARG_OF_PERICENTER = 241.8492
MEAN_ANOMALY   = 118.1844

EPHEMERIS_TYPE = 0
CLASSIFICATION_TYPE = U
NORAD_CAT_ID   = 67750
ELEMENT_SET_NO = 999
REV_AT_EPOCH   = 234
BSTAR          = .44127E-3
MEAN_MOTION_DOT = .8888E-4
MEAN_MOTION_DDOT = 0

CCSDS_OMM_VERS = 2.0
CREATION_DATE  = 
ORIGINATOR     = 

OBJECT_NAME    = 2026-027F
OBJECT_ID      = 2026-027F
CENTER_NAME    = EARTH
REF_FRAME      = TEME
TIME_SYSTEM    = UTC
MEAN_ELEMENT_THEORY = SGP/SGP4

EPOCH          = 2026-02-27T16:13:25.671648
MEAN_MOTION    = 15.18090663
ECCENTRICITY   = .001008
INCLINATION    = 97.4897
RA_OF_ASC_NODE = 187.8125
ARG_OF_PERICENTER = 242.0073
MEAN_ANOMALY   = 118.0141

EPHEMERIS_TYPE = 0
CLASSIFICATION_TYPE = U
NORAD_CAT_ID   = 67751
ELEMENT_SET_NO = 999
REV_AT_EPOCH   = 234
BSTAR          = .72762E-3
MEAN_MOTION_DOT = .14802E-3
MEAN_MOTION_DDOT = 0

CCSDS_OMM_VERS = 2.0
CREATION_DATE  = 
ORIGINATOR     = 

OBJECT_NAME    = 2026-027G
OBJECT_ID      = 2026-027G
CENTER_NAME    = EARTH
REF_FRAME      = TEME
TIME_SYSTEM    = UTC
MEAN_ELEMENT_THEORY = SGP/SGP4

EPOCH          = 2026-02-27T16:13:44.416128
MEAN_MOTION    = 15.17986173
ECCENTRICITY   = .0009203
INCLINATION    = 97.4891
RA_OF_ASC_NODE = 187.8107
ARG_OF_PERICENTER = 244.2503
MEAN_ANOMALY   = 115.7781

EPHEMERIS_TYPE = 0
CLASSIFICATION_TYPE = U
NORAD_CAT_ID   = 67752
ELEMENT_SET_NO = 999
REV_AT_EPOCH   = 234
BSTAR          = .45682E-3
MEAN_MOTION_DOT = .9231E-4
MEAN_MOTION_DDOT = 0

CCSDS_OMM_VERS = 2.0
CREATION_DATE  = 
ORIGINATOR     = 

OBJECT_NAME    = 2026-027H
OBJECT_ID      = 2026-027H
CENTER_NAME    = EARTH
REF_FRAME      = TEME
TIME_SYSTEM    = UTC
MEAN_ELEMENT_THEORY = SGP/SGP4

EPOCH          = 2026-02-27T16:46:12.927072
MEAN_MOTION    = 15.66693825
ECCENTRICITY   = .0243369
INCLINATION    = 97.5120
RA_OF_ASC_NODE = 188.9596
ARG_OF_PERICENTER = 281.7868
MEAN_ANOMALY   = 75.6188

EPHEMERIS_TYPE = 0
CLASSIFICATION_TYPE = U
NORAD_CAT_ID   = 67753
ELEMENT_SET_NO = 999
REV_AT_EPOCH   = 241
BSTAR          = .6021E-3
MEAN_MOTION_DOT = .36345E-2
MEAN_MOTION_DDOT = .23698E-5

CCSDS_OMM_VERS = 2.0
CREATION_DATE  = 
ORIGINATOR     = 

OBJECT_NAME    = 2026-027J
OBJECT_ID      = 2026-027J
CENTER_NAME    = EARTH
REF_FRAME      = TEME
TIME_SYSTEM    = UTC
MEAN_ELEMENT_THEORY = SGP/SGP4

EPOCH          = 2026-02-27T16:42:43.684416
MEAN_MOTION    = 15.81647387
ECCENTRICITY   = .0193363
INCLINATION    = 97.5065
RA_OF_ASC_NODE = 189.1144
ARG_OF_PERICENTER = 280.4893
MEAN_ANOMALY   = 77.4640

EPHEMERIS_TYPE = 0
CLASSIFICATION_TYPE = U
NORAD_CAT_ID   = 67754
ELEMENT_SET_NO = 999
REV_AT_EPOCH   = 236
BSTAR          = .1208E-2
MEAN_MOTION_DOT = .1041755E-1
MEAN_MOTION_DDOT = .24239E-5

CCSDS_OMM_VERS = 2.0
CREATION_DATE  = 
ORIGINATOR     = 

OBJECT_NAME    = 2026-028A
OBJECT_ID      = 2026-028A
CENTER_NAME    = EARTH
REF_FRAME      = TEME
TIME_SYSTEM    = UTC
MEAN_ELEMENT_THEORY = SGP/SGP4

EPOCH          = 2026-02-27T07:09:40.939200
MEAN_MOTION    = 0.99525359
ECCENTRICITY   = .0042028
INCLINATION    = 0.4950
RA_OF_ASC_NODE = 289.1110
ARG_OF_PERICENTER = 229.7007
MEAN_ANOMALY   = 201.3286

EPHEMERIS_TYPE = 0
CLASSIFICATION_TYPE = U
NORAD_CAT_ID   = 67756
ELEMENT_SET_NO = 999
REV_AT_EPOCH   = 15
BSTAR          = 0
MEAN_MOTION_DOT = -.135E-5
MEAN_MOTION_DDOT = 0

CCSDS_OMM_VERS = 2.0
CREATION_DATE  = 
ORIGINATOR     = 

OBJECT_NAME    = KUIPER-00159
OBJECT_ID      = 2026-030A
CENTER_NAME    = EARTH
REF_FRAME      = TEME
TIME_SYSTEM    = UTC
MEAN_ELEMENT_THEORY = SGP/SGP4

EPOCH          = 2026-02-27T16:11:11.304960
MEAN_MOTION    = 15.35241570
ECCENTRICITY   = .0004205
INCLINATION    = 51.8835
RA_OF_ASC_NODE = 267.4486
ARG_OF_PERICENTER = 23.1249
MEAN_ANOMALY   = 336.9925

EPHEMERIS_TYPE = 0
CLASSIFICATION_TYPE = U
NORAD_CAT_ID   = 67764
ELEMENT_SET_NO = 999
REV_AT_EPOCH   = 355
BSTAR          = .81562E-3
MEAN_MOTION_DOT = .28063E-3
MEAN_MOTION_DDOT = 0

CCSDS_OMM_VERS = 2.0
CREATION_DATE  = 
ORIGINATOR     = 

OBJECT_NAME    = KUIPER-00160
OBJECT_ID      = 2026-030B
CENTER_NAME    = EARTH
REF_FRAME      = TEME
TIME_SYSTEM    = UTC
MEAN_ELEMENT_THEORY = SGP/SGP4

EPOCH          = 2026-02-27T16:12:18.932832
MEAN_MOTION    = 15.35159707
ECCENTRICITY   = .0004367
INCLINATION    = 51.8802
RA_OF_ASC_NODE = 267.4468
ARG_OF_PERICENTER = 32.9578
MEAN_ANOMALY   = 327.1679

EPHEMERIS_TYPE = 0
CLASSIFICATION_TYPE = U
NORAD_CAT_ID   = 67765
ELEMENT_SET_NO = 999
REV_AT_EPOCH   = 355
BSTAR          = .50944E-3
MEAN_MOTION_DOT = .17313E-3
MEAN_MOTION_DDOT = 0

CCSDS_OMM_VERS = 2.0
CREATION_DATE  = 
ORIGINATOR     = 

OBJECT_NAME    = KUIPER-00177
OBJECT_ID      = 2026-030C
CENTER_NAME    = EARTH
REF_FRAME      = TEME
TIME_SYSTEM    = UTC
MEAN_ELEMENT_THEORY = SGP/SGP4

EPOCH          = 2026-02-27T15:59:32.879328
MEAN_MOTION    = 15.36014085
ECCENTRICITY   = .0000431
INCLINATION    = 51.8818
RA_OF_ASC_NODE = 267.3938
ARG_OF_PERICENTER = 56.3572
MEAN_ANOMALY   = 303.7455

EPHEMERIS_TYPE = 0
CLASSIFICATION_TYPE = U
NORAD_CAT_ID   = 67766
ELEMENT_SET_NO = 999
REV_AT_EPOCH   = 355
BSTAR          = .78073E-3
MEAN_MOTION_DOT = .27518E-3
MEAN_MOTION_DDOT = 0

CCSDS_OMM_VERS = 2.0
CREATION_DATE  = 
ORIGINATOR     = 

OBJECT_NAME    = KUIPER-00178
OBJECT_ID      = 2026-030D
CENTER_NAME    = EARTH
REF_FRAME      = TEME
TIME_SYSTEM    = UTC
MEAN_ELEMENT_THEORY = SGP/SGP4

EPOCH          = 2026-02-27T16:14:15.602208
MEAN_MOTION    = 15.35027738
ECCENTRICITY   = .0005625
INCLINATION    = 51.8825
RA_OF_ASC_NODE = 267.4594
ARG_OF_PERICENTER = 21.4422
MEAN_ANOMALY   = 338.6798

EPHEMERIS_TYPE = 0
CLASSIFICATION_TYPE = U
NORAD_CAT_ID   = 67767
ELEMENT_SET_NO = 999
REV_AT_EPOCH   = 355
BSTAR          = .53182E-3
MEAN_MOTION_DOT = .18018E-3
MEAN_MOTION_DDOT = 0

