2026-027C               
1 67748U 26027C   26058.67902633  .00005958  00000+0  29894-3 0  9997
2 67748  97.4892 187.8067 0009984 235.9191 124.1095 15.17655860  2345
2026-027D               
1 67749U 26027D   26058.67713426  .00009884  00000+0  48993-3 0  9991
2 67749  97.4886 187.8082 0009720 240.7540 119.2722 15.17906606  2299
2026-027E               
1 67750U 26027E   26058.67710931  .00008888  00000+0  44127-3 0  9999
2 67750  97.4896 187.8105 0008883 241.8492 118.1844 15.17888583  2347
2026-027F               
1 67751U 26027F   26058.67599157  .00014802  00000+0  72762-3 0  9994
2 67751  97.4897 187.8125 0010080 242.0073 118.0141 15.18090663  2345
2026-027G               
1 67752U 26027G   26058.67620852  .00009231  00000+0  45682-3 0  9993
2 67752  97.4891 187.8107 0009203 244.2503 115.7781 15.17986173  2340
2026-027H               
1 67753U 26027H   26058.69876073  .00363450  23698-5  60210-3 0  9998
2 67753  97.5120 188.9596 0243369 281.7868  75.6188 15.66693825  2410
2026-027J               
1 67754U 26027J   26058.69633894  .01041755  24239-5  12080-2 0  9996
2 67754  97.5065 189.1144 0193363 280.4893  77.4640 15.81647387  2369
2026-028A               
1 67756U 26028A   26058.29839050 -.00000135  00000+0  00000+0 0  9994
2 67756   0.4950 289.1110 0042028 229.7007 201.3286  0.99525359   151
KUIPER-00159            
1 67764U 26030A   26058.67443640  .00028063  00000+0  81562-3 0  9999
2 67764  51.8835 267.4486 0004205  23.1249 336.9925 15.35241570  3554
KUIPER-00160            
1 67765U 26030B   26058.67521913  .00017313  00000+0  50944-3 0  9996
2 67765  51.8802 267.4468 0004367  32.9578 327.1679 15.35159707  3559
KUIPER-00177            
1 67766U 26030C   26058.66635277  .00027518  00000+0  78073-3 0  9996
2 67766  51.8818 267.3938 0000431  56.3572 303.7455 15.36014085  3552
KUIPER-00178            
1 67767U 26030D   26058.67656947  .00018018  00000+0  53182-3 0  9994
2 67767  51.8825 267.4594 0005625  21.4422 338.6798 15.35027738  3552
